{
    "week": 294,
    "satellites": [
        {
            "Name": "BEIDOU-3 M24 (C46)",
            "Line1": "1 44542U 19061A   24332.75498574  .00000077  00000+0  00000+0 0  9991",
            "Line2": "2 44542  54.4244 201.8365 0009059  14.0130 346.1104  1.86229462 35244",
            "SatelliteNumber": "44542",
            "Classification": "U",
            "LaunchYear": "19",
            "LaunchNumber": "061",
            "PieceOfLaunch": "A",
            "EpochYear": "24",
            "EpochDay": 332.75498574,
            "FirstDerivativeMeanMotion": 7.7e-07,
            "SecondDerivativeMeanMotion": "00000+0",
            "BSTAR": "00000+0",
            "SetNumber": "999",
            "Inclination": 54.4244,
            "RAAN": 201.8365,
            "Eccentricity": 0.0009059,
            "ArgumentOfPerigee": 14.013,
            "MeanAnomaly": 346.1104,
            "MeanMotion": 1.86229462,
            "RevolutionNumber": "3524"
        },
        {
            "Name": "BEIDOU-3 M23 (C45)",
            "Line1": "1 44543U 19061B   24331.52427483  .00000059  00000+0  00000+0 0  9997",
            "Line2": "2 44543  54.4227 201.8468 0005753  10.0598 157.5355  1.86229774 35227",
            "SatelliteNumber": "44543",
            "Classification": "U",
            "LaunchYear": "19",
            "LaunchNumber": "061",
            "PieceOfLaunch": "B",
            "EpochYear": "24",
            "EpochDay": 331.52427483,
            "FirstDerivativeMeanMotion": 5.9e-07,
            "SecondDerivativeMeanMotion": "00000+0",
            "BSTAR": "00000+0",
            "SetNumber": "999",
            "Inclination": 54.4227,
            "RAAN": 201.8468,
            "Eccentricity": 0.0005753,
            "ArgumentOfPerigee": 10.0598,
            "MeanAnomaly": 157.5355,
            "MeanMotion": 1.86229774,
            "RevolutionNumber": "3522"
        },
        {
            "Name": "BEIDOU-3 IGSO-3 (C40)",
            "Line1": "1 44709U 19073A   24333.28529543 -.00000210  00000+0  00000+0 0  9999",
            "Line2": "2 44709  55.7742 286.9842 0040204 190.4765 169.3768  1.00252123 18787",
            "SatelliteNumber": "44709",
            "Classification": "U",
            "LaunchYear": "19",
            "LaunchNumber": "073",
            "PieceOfLaunch": "A",
            "EpochYear": "24",
            "EpochDay": 333.28529543,
            "FirstDerivativeMeanMotion": -2.1e-06,
            "SecondDerivativeMeanMotion": "00000+0",
            "BSTAR": "00000+0",
            "SetNumber": "999",
            "Inclination": 55.7742,
            "RAAN": 286.9842,
            "Eccentricity": 0.0040204,
            "ArgumentOfPerigee": 190.4765,
            "MeanAnomaly": 169.3768,
            "MeanMotion": 1.00252123,
            "RevolutionNumber": "1878"
        },
        {
            "Name": "BEIDOU-3 M22 (C44)",
            "Line1": "1 44793U 19078A   24333.13616791 -.00000076  00000+0  00000+0 0  9993",
            "Line2": "2 44793  54.4361 319.6605 0005505  11.1205 348.8947  1.86232146 34101",
            "SatelliteNumber": "44793",
            "Classification": "U",
            "LaunchYear": "19",
            "LaunchNumber": "078",
            "PieceOfLaunch": "A",
            "EpochYear": "24",
            "EpochDay": 333.13616791,
            "FirstDerivativeMeanMotion": -7.6e-07,
            "SecondDerivativeMeanMotion": "00000+0",
            "BSTAR": "00000+0",
            "SetNumber": "999",
            "Inclination": 54.4361,
            "RAAN": 319.6605,
            "Eccentricity": 0.0005505,
            "ArgumentOfPerigee": 11.1205,
            "MeanAnomaly": 348.8947,
            "MeanMotion": 1.86232146,
            "RevolutionNumber": "3410"
        },
        {
            "Name": "BEIDOU-3 M21 (C43)",
            "Line1": "1 44794U 19078B   24333.26553026 -.00000076  00000+0  00000+0 0  9999",
            "Line2": "2 44794  54.4095 319.6285 0003724 355.2441   4.7551  1.86232668 34114",
            "SatelliteNumber": "44794",
            "Classification": "U",
            "LaunchYear": "19",
            "LaunchNumber": "078",
            "PieceOfLaunch": "B",
            "EpochYear": "24",
            "EpochDay": 333.26553026,
            "FirstDerivativeMeanMotion": -7.6e-07,
            "SecondDerivativeMeanMotion": "00000+0",
            "BSTAR": "00000+0",
            "SetNumber": "999",
            "Inclination": 54.4095,
            "RAAN": 319.6285,
            "Eccentricity": 0.0003724,
            "ArgumentOfPerigee": 355.2441,
            "MeanAnomaly": 4.7551,
            "MeanMotion": 1.86232668,
            "RevolutionNumber": "3411"
        },
        {
            "Name": "BEIDOU-3 M19 (C41)",
            "Line1": "1 44864U 19090A   24333.45789618 -.00000040  00000+0  00000+0 0  9991",
            "Line2": "2 44864  56.0644  81.5698 0016925 278.5842  42.4386  1.86231635 33692",
            "SatelliteNumber": "44864",
            "Classification": "U",
            "LaunchYear": "19",
            "LaunchNumber": "090",
            "PieceOfLaunch": "A",
            "EpochYear": "24",
            "EpochDay": 333.45789618,
            "FirstDerivativeMeanMotion": -4e-07,
            "SecondDerivativeMeanMotion": "00000+0",
            "BSTAR": "00000+0",
            "SetNumber": "999",
            "Inclination": 56.0644,
            "RAAN": 81.5698,
            "Eccentricity": 0.0016925,
            "ArgumentOfPerigee": 278.5842,
            "MeanAnomaly": 42.4386,
            "MeanMotion": 1.86231635,
            "RevolutionNumber": "3369"
        },
        {
            "Name": "BEIDOU-3 M20 (C42)",
            "Line1": "1 44865U 19090B   24333.36788497 -.00000040  00000+0  00000+0 0  9996",
            "Line2": "2 44865  56.0660  81.6065 0014214 291.7301  58.6386  1.86231606 33671",
            "SatelliteNumber": "44865",
            "Classification": "U",
            "LaunchYear": "19",
            "LaunchNumber": "090",
            "PieceOfLaunch": "B",
            "EpochYear": "24",
            "EpochDay": 333.36788497,
            "FirstDerivativeMeanMotion": -4e-07,
            "SecondDerivativeMeanMotion": "00000+0",
            "BSTAR": "00000+0",
            "SetNumber": "999",
            "Inclination": 56.066,
            "RAAN": 81.6065,
            "Eccentricity": 0.0014214,
            "ArgumentOfPerigee": 291.7301,
            "MeanAnomaly": 58.6386,
            "MeanMotion": 1.86231606,
            "RevolutionNumber": "3367"
        },
        {
            "Name": "BEIDOU-3 G2 (C60)",
            "Line1": "1 45344U 20017A   24333.53106340 -.00000116  00000+0  00000+0 0  9994",
            "Line2": "2 45344   2.5436  35.2961 0004299 219.7736  84.0562  1.00271078 17589",
            "SatelliteNumber": "45344",
            "Classification": "U",
            "LaunchYear": "20",
            "LaunchNumber": "017",
            "PieceOfLaunch": "A",
            "EpochYear": "24",
            "EpochDay": 333.5310634,
            "FirstDerivativeMeanMotion": -1.16e-06,
            "SecondDerivativeMeanMotion": "00000+0",
            "BSTAR": "00000+0",
            "SetNumber": "999",
            "Inclination": 2.5436,
            "RAAN": 35.2961,
            "Eccentricity": 0.0004299,
            "ArgumentOfPerigee": 219.7736,
            "MeanAnomaly": 84.0562,
            "MeanMotion": 1.00271078,
            "RevolutionNumber": "1758"
        },
        {
            "Name": "BEIDOU-3 G3 (C61)",
            "Line1": "1 45807U 20040A   24333.51091156 -.00000328  00000+0  00000+0 0  9995",
            "Line2": "2 45807   1.1015  56.6142 0003491 302.1602   3.6541  1.00272649 16398",
            "SatelliteNumber": "45807",
            "Classification": "U",
            "LaunchYear": "20",
            "LaunchNumber": "040",
            "PieceOfLaunch": "A",
            "EpochYear": "24",
            "EpochDay": 333.51091156,
            "FirstDerivativeMeanMotion": -3.28e-06,
            "SecondDerivativeMeanMotion": "00000+0",
            "BSTAR": "00000+0",
            "SetNumber": "999",
            "Inclination": 1.1015,
            "RAAN": 56.6142,
            "Eccentricity": 0.0003491,
            "ArgumentOfPerigee": 302.1602,
            "MeanAnomaly": 3.6541,
            "MeanMotion": 1.00272649,
            "RevolutionNumber": "1639"
        },
        {
            "Name": "BEIDOU-3 G4 (C62)",
            "Line1": "1 56564U 23066A   24333.60420821 -.00000084  00000+0  00000+0 0  9992",
            "Line2": "2 56564   1.7160 289.0588 0004366 257.3117 259.2049  1.00271753  5729",
            "SatelliteNumber": "56564",
            "Classification": "U",
            "LaunchYear": "23",
            "LaunchNumber": "066",
            "PieceOfLaunch": "A",
            "EpochYear": "24",
            "EpochDay": 333.60420821,
            "FirstDerivativeMeanMotion": -8.4e-07,
            "SecondDerivativeMeanMotion": "00000+0",
            "BSTAR": "00000+0",
            "SetNumber": "999",
            "Inclination": 1.716,
            "RAAN": 289.0588,
            "Eccentricity": 0.0004366,
            "ArgumentOfPerigee": 257.3117,
            "MeanAnomaly": 259.2049,
            "MeanMotion": 1.00271753,
            "RevolutionNumber": "572"
        }
    ]
}